CAS-2T & KS-1Q          
1 41847U 16066G   26068.70703402  .00001617  00000+0  23399-3 0  9991
2 41847  98.3880 145.5568 0343668  71.4405 292.3791 14.44469485490439
PEXT (BARD)             
1 64874U 25154F   26068.70989017  .00004311  00000+0  20462-3 0  9994
2 64874  97.4066 135.5860 0001238 270.8362  89.2731 15.19773826 34739
