[{"OBJECT_NAME":"CAS-2T & KS-1Q","OBJECT_ID":"2016-066G","EPOCH":"2026-03-09T16:58:07.740192","MEAN_MOTION":14.44469485,"ECCENTRICITY":0.03436678,"INCLINATION":98.388,"RA_OF_ASC_NODE":145.5568,"ARG_OF_PERICENTER":71.4405,"MEAN_ANOMALY":292.3791,"EPHEMERIS_TYPE":0,"CLASSIFICATION_TYPE":"U","NORAD_CAT_ID":41847,"ELEMENT_SET_NO":999,"REV_AT_EPOCH":49043,"BSTAR":0.00023398968,"MEAN_MOTION_DOT":1.617e-5,"MEAN_MOTION_DDOT":0},{"OBJECT_NAME":"PEXT (BARD)","OBJECT_ID":"2025-154F","EPOCH":"2026-03-09T17:02:14.512416","MEAN_MOTION":15.19773826,"ECCENTRICITY":0.0001238,"INCLINATION":97.4066,"RA_OF_ASC_NODE":135.586,"ARG_OF_PERICENTER":270.8362,"MEAN_ANOMALY":89.2731,"EPHEMERIS_TYPE":0,"CLASSIFICATION_TYPE":"U","NORAD_CAT_ID":64874,"ELEMENT_SET_NO":999,"REV_AT_EPOCH":3473,"BSTAR":0.00020462446,"MEAN_MOTION_DOT":4.311e-5,"MEAN_MOTION_DDOT":0}]
